IRIDIUM 106             
1 41917U 17003A   23349.43021977  .00000310  00000+0  10378-3 0  9992
2 41917  86.3967 110.8413 0002150  87.1694 272.9748 14.34219391362090
IRIDIUM 103             
1 41918U 17003B   23349.41752720  .00000305  00000+0  10168-3 0  9999
2 41918  86.3965 110.7484 0002351 101.7426 258.4034 14.34217680362114
IRIDIUM 109             
1 41919U 17003C   23349.42386351  .00000308  00000+0  10302-3 0  9997
2 41919  86.3969 110.7907 0001974 101.8892 258.2525 14.34219181362084
IRIDIUM 102             
1 41920U 17003D   23349.39215359  .00000311  00000+0  10402-3 0  9999
2 41920  86.3968 110.7472 0001970  99.3865 260.7553 14.34218730362166
IRIDIUM 105             
1 41921U 17003E   23349.29310785  .00000346  00000+0  11652-3 0  9994
2 41921  86.3973  79.1959 0002157  97.0000 263.1442 14.34216326364003
IRIDIUM 104             
1 41922U 17003F   23349.40484104  .00000306  00000+0  10213-3 0  9993
2 41922  86.3967 110.7702 0002108 102.6610 257.4821 14.34219737362151
IRIDIUM 114             
1 41923U 17003G   23349.41118269  .00000329  00000+0  11029-3 0  9992
2 41923  86.3967 110.7542 0002043  89.2207 270.9223 14.34218997362135
IRIDIUM 108             
1 41924U 17003H   23349.29993331  .00000293  00000+0  97646-4 0  9990
2 41924  86.3967  79.1296 0002228  90.4080 269.7372 14.34218201363970
